{"type": "FeatureCollection", "features": [ {"type": "Feature", "properties": {"norad_id": 36199, "name": "FENGYUN 1C DEB", "group": "fengyun-1c-debris", "lat": 30.84262193060882, "lon": -164.69430714020638, "alt_km": 789.0540517045401, "timestamp": "2025-12-15T07:02:37.904660+00:00", "meta": {"OBJECT_NAME": "FENGYUN 1C DEB", "OBJECT_ID": "1999-025DTY", "EPOCH": "2025-12-14T18:36:07.375104", "MEAN_MOTION": 14.2965262, "ECCENTRICITY": 0.0092845, "INCLINATION": 98.2897, "RA_OF_ASC_NODE": 9.8178, "ARG_OF_PERICENTER": 61.5398, "MEAN_ANOMALY": 299.51, "EPHEMERIS_TYPE": 0, "CLASSIFICATION_TYPE": "U", "NORAD_CAT_ID": 36199, "ELEMENT_SET_NO": 999, "REV_AT_EPOCH": 65009, "BSTAR": 0.00030192646, "MEAN_MOTION_DOT": 7.7e-06, "MEAN_MOTION_DDOT": 0}, "tle": {"line1": "1 36199U 99025DTY 25348.77508536  .00000770  00000+0  30193-3 0  9998", "line2": "2 36199  98.2897   9.8178 0092845  61.5398 299.5100 14.29652620650099"}}, "geometry": {"type": "Point", "coordinates": [-164.69430714020638, 30.84262193060882]}}, {"type": "Feature", "properties": {"norad_id": 36200, "name": "FENGYUN 1C DEB", "group": "fengyun-1c-debris", "lat": -21.099603556879085, "lon": -120.08163830201934, "alt_km": 724.2408983459563, "timestamp": "2025-12-15T07:02:37.904670+00:00", "meta": {"OBJECT_NAME": "FENGYUN 1C DEB", "OBJECT_ID": "1999-025DTZ", "EPOCH": "2025-12-14T03:47:05.989344", "MEAN_MOTION": 14.58756817, "ECCENTRICITY": 0.00334694, "INCLINATION": 99.3863, "RA_OF_ASC_NODE": 62.296, "ARG_OF_PERICENTER": 2.8388, "MEAN_ANOMALY": 357.2991, "EPHEMERIS_TYPE": 0, "CLASSIFICATION_TYPE": "U", "NORAD_CAT_ID": 36200, "ELEMENT_SET_NO": 999, "REV_AT_EPOCH": 73381, "BSTAR": 0.0042903483, "MEAN_MOTION_DOT": 0.00020193, "MEAN_MOTION_DDOT": 0}, "tle": {"line1": "1 36200U 99025DTZ 25348.15770821  .00020193  00000+0  42903-2 0  9993", "line2": "2 36200  99.3863  62.2960 0033469   2.8388 357.2991 14.58756817733810"}}, "geometry": {"type": "Point", "coordinates": [-120.08163830201934, -21.099603556879085]}}, {"type": "Feature", "properties": {"norad_id": 36203, "name": "FENGYUN 1C DEB", "group": "fengyun-1c-debris", "lat": -7.474810856098738, "lon": -65.39783493851535, "alt_km": 687.5120984911218, "timestamp": "2025-12-15T07:02:37.904680+00:00", "meta": {"OBJECT_NAME": "FENGYUN 1C DEB", "OBJECT_ID": "1999-025DUC", "EPOCH": "2025-12-12T14:06:24.050304", "MEAN_MOTION": 14.78408417, "ECCENTRICITY": 0.00835001, "INCLINATION": 99.0957, "RA_OF_ASC_NODE": 290.3437, "ARG_OF_PERICENTER": 148.9986, "MEAN_ANOMALY": 211.6188, "EPHEMERIS_TYPE": 0, "CLASSIFICATION_TYPE": "U", "NORAD_CAT_ID": 36203, "ELEMENT_SET_NO": 999, "REV_AT_EPOCH": 63427, "BSTAR": 0.0017430334, "MEAN_MOTION_DOT": 0.00013417, "MEAN_MOTION_DDOT": 0}, "tle": {"line1": "1 36203U 99025DUC 25346.58777836  .00013417  00000+0  17430-2 0  9992", "line2": "2 36203  99.0957 290.3437 0083500 148.9986 211.6188 14.78408417634277"}}, "geometry": {"type": "Point", "coordinates": [-65.39783493851535, -7.474810856098738]}}, {"type": "Feature", "properties": {"norad_id": 36204, "name": "FENGYUN 1C DEB", "group": "fengyun-1c-debris", "lat": 77.9665331555693, "lon": 36.39491331034906, "alt_km": 764.8834740912489, "timestamp": "2025-12-15T07:02:37.904690+00:00", "meta": {"OBJECT_NAME": "FENGYUN 1C DEB", "OBJECT_ID": "1999-025DUD", "EPOCH": "2025-12-13T12:48:50.013216", "MEAN_MOTION": 14.34589399, "ECCENTRICITY": 0.00200312, "INCLINATION": 99.2908, "RA_OF_ASC_NODE": 84.6725, "ARG_OF_PERICENTER": 160.7561, "MEAN_ANOMALY": 199.4382, "EPHEMERIS_TYPE": 0, "CLASSIFICATION_TYPE": "U", "NORAD_CAT_ID": 36204, "ELEMENT_SET_NO": 999, "REV_AT_EPOCH": 94439, "BSTAR": 0.0020446238, "MEAN_MOTION_DOT": 5.743e-05, "MEAN_MOTION_DDOT": 0}, "tle": {"line1": "1 36204U 99025DUD 25347.53391219  .00005743  00000+0  20446-2 0  9990", "line2": "2 36204  99.2908  84.6725 0020031 160.7561 199.4382 14.34589399944398"}}, "geometry": {"type": "Point", "coordinates": [36.39491331034906, 77.9665331555693]}}, {"type": "Feature", "properties": {"norad_id": 36206, "name": "FENGYUN 1C DEB", "group": "fengyun-1c-debris", "lat": -21.706745303375186, "lon": 15.749289895425568, "alt_km": 807.0231539876568, "timestamp": "2025-12-15T07:02:37.904700+00:00", "meta": {"OBJECT_NAME": "FENGYUN 1C DEB", "OBJECT_ID": "1999-025DUF", "EPOCH": "2025-12-12T08:11:58.521984", "MEAN_MOTION": 14.21580365, "ECCENTRICITY": 0.00304293, "INCLINATION": 98.4792, "RA_OF_ASC_NODE": 9.509, "ARG_OF_PERICENTER": 20.5451, "MEAN_ANOMALY": 339.6943, "EPHEMERIS_TYPE": 0, "CLASSIFICATION_TYPE": "U", "NORAD_CAT_ID": 36206, "ELEMENT_SET_NO": 999, "REV_AT_EPOCH": 64415, "BSTAR": 0.00096057028, "MEAN_MOTION_DOT": 2.074e-05, "MEAN_MOTION_DDOT": 0}, "tle": {"line1": "1 36206U 99025DUF 25346.34164956  .00002074  00000+0  96057-3 0  9992", "line2": "2 36206  98.4792   9.5090 0030429  20.5451 339.6943 14.21580365644158"}}, "geometry": {"type": "Point", "coordinates": [15.749289895425568, -21.706745303375186]}}, {"type": "Feature", "properties": {"norad_id": 36211, "name": "FENGYUN 1C DEB", "group": "fengyun-1c-debris", "lat": 23.647606881950022, "lon": 166.1442495709657, "alt_km": 720.6834971357421, "timestamp": "2025-12-15T07:02:37.904710+00:00", "meta": {"OBJECT_NAME": "FENGYUN 1C DEB", "OBJECT_ID": "1999-025DUL", "EPOCH": "2025-12-12T05:52:45.045984", "MEAN_MOTION": 14.2599064, "ECCENTRICITY": 0.02665534, "INCLINATION": 98.5055, "RA_OF_ASC_NODE": 339.424, "ARG_OF_PERICENTER": 230.3031, "MEAN_ANOMALY": 127.4375, "EPHEMERIS_TYPE": 0, "CLASSIFICATION_TYPE": "U", "NORAD_CAT_ID": 36211, "ELEMENT_SET_NO": 999, "REV_AT_EPOCH": 94362, "BSTAR": 0.00079042228, "MEAN_MOTION_DOT": 2.691e-05, "MEAN_MOTION_DDOT": 0}, "tle": {"line1": "1 36211U 99025DUL 25346.24496581  .00002691  00000+0  79042-3 0  9999", "line2": "2 36211  98.5055 339.4240 0266553 230.3031 127.4375 14.25990640943624"}}, "geometry": {"type": "Point", "coordinates": [166.1442495709657, 23.647606881950022]}}, {"type": "Feature", "properties": {"norad_id": 36216, "name": "FENGYUN 1C DEB", "group": "fengyun-1c-debris", "lat": 73.01922305014112, "lon": -140.8295461515853, "alt_km": 824.3663612432629, "timestamp": "2025-12-15T07:02:37.904720+00:00", "meta": {"OBJECT_NAME": "FENGYUN 1C DEB", "OBJECT_ID": "1999-025DUR", "EPOCH": "2025-12-09T18:32:38.416704", "MEAN_MOTION": 14.18849305, "ECCENTRICITY": 0.00451569, "INCLINATION": 98.6092, "RA_OF_ASC_NODE": 4.0664, "ARG_OF_PERICENTER": 26.4592, "MEAN_ANOMALY": 333.8876, "EPHEMERIS_TYPE": 0, "CLASSIFICATION_TYPE": "U", "NORAD_CAT_ID": 36216, "ELEMENT_SET_NO": 999, "REV_AT_EPOCH": 64330, "BSTAR": 0.00051766748, "MEAN_MOTION_DOT": 1.046e-05, "MEAN_MOTION_DDOT": 0}, "tle": {"line1": "1 36216U 99025DUR 25343.77266686  .00001046  00000+0  51767-3 0  9997", "line2": "2 36216  98.6092   4.0664 0045156  26.4592 333.8876 14.18849305643300"}}, "geometry": {"type": "Point", "coordinates": [-140.8295461515853, 73.01922305014112]}}, {"type": "Feature", "properties": {"norad_id": 36218, "name": "FENGYUN 1C DEB", "group": "fengyun-1c-debris", "lat": 53.3953982416044, "lon": 23.01827666848662, "alt_km": 701.437747672122, "timestamp": "2025-12-15T07:02:37.904730+00:00", "meta": {"OBJECT_NAME": "FENGYUN 1C DEB", "OBJECT_ID": "1999-025DUT", "EPOCH": "2025-12-12T19:42:04.442400", "MEAN_MOTION": 14.70989932, "ECCENTRICITY": 0.0072811, "INCLINATION": 99.0771, "RA_OF_ASC_NODE": 187.8366, "ARG_OF_PERICENTER": 295.4261, "MEAN_ANOMALY": 63.9419, "EPHEMERIS_TYPE": 0, "CLASSIFICATION_TYPE": "U", "NORAD_CAT_ID": 36218, "ELEMENT_SET_NO": 999, "REV_AT_EPOCH": 59144, "BSTAR": 0.0015985689, "MEAN_MOTION_DOT": 0.00010165, "MEAN_MOTION_DDOT": 0}, "tle": {"line1": "1 36218U 99025DUT 25346.82088475  .00010165  00000+0  15986-2 0  9990", "line2": "2 36218  99.0771 187.8366 0072811 295.4261  63.9419 14.70989932591449"}}, "geometry": {"type": "Point", "coordinates": [23.01827666848662, 53.3953982416044]}}, {"type": "Feature", "properties": {"norad_id": 36224, "name": "FENGYUN 1C DEB", "group": "fengyun-1c-debris", "lat": -74.2784730379151, "lon": 69.88167169907263, "alt_km": 817.1466445435735, "timestamp": "2025-12-15T07:02:37.904740+00:00", "meta": {"OBJECT_NAME": "FENGYUN 1C DEB", "OBJECT_ID": "1999-025DUZ", "EPOCH": "2025-12-14T09:18:14.070240", "MEAN_MOTION": 14.12763322, "ECCENTRICITY": 0.01144947, "INCLINATION": 98.7801, "RA_OF_ASC_NODE": 35.6925, "ARG_OF_PERICENTER": 347.312, "MEAN_ANOMALY": 12.5176, "EPHEMERIS_TYPE": 0, "CLASSIFICATION_TYPE": "U", "NORAD_CAT_ID": 36224, "ELEMENT_SET_NO": 999, "REV_AT_EPOCH": 64455, "BSTAR": 0.00014112156, "MEAN_MOTION_DOT": 2.35e-06, "MEAN_MOTION_DDOT": 0}, "tle": {"line1": "1 36224U 99025DUZ 25348.38766285  .00000235  00000+0  14112-3 0  9990", "line2": "2 36224  98.7801  35.6925 0114494 347.3120  12.5176 14.12763322644552"}}, "geometry": {"type": "Point", "coordinates": [69.88167169907263, -74.2784730379151]}}, {"type": "Feature", "properties": {"norad_id": 36225, "name": "FENGYUN 1C DEB", "group": "fengyun-1c-debris", "lat": -2.889263305462493, "lon": -69.38904960575563, "alt_km": 555.9963659805198, "timestamp": "2025-12-15T07:02:37.904750+00:00", "meta": {"OBJECT_NAME": "FENGYUN 1C DEB", "OBJECT_ID": "1999-025DVA", "EPOCH": "2025-12-11T03:22:25.516704", "MEAN_MOTION": 15.05886228, "ECCENTRICITY": 0.00436396, "INCLINATION": 98.8181, "RA_OF_ASC_NODE": 106.3139, "ARG_OF_PERICENTER": 296.8088, "MEAN_ANOMALY": 62.8675, "EPHEMERIS_TYPE": 0, "CLASSIFICATION_TYPE": "U", "NORAD_CAT_ID": 36225, "ELEMENT_SET_NO": 999, "REV_AT_EPOCH": 66748, "BSTAR": 0.0037986718, "MEAN_MOTION_DOT": 0.00056719, "MEAN_MOTION_DDOT": 0}, "tle": {"line1": "1 36225U 99025DVA 25345.14057311  .00056719  00000+0  37987-2 0  9997", "line2": "2 36225  98.8181 106.3139 0043639 296.8088  62.8675 15.05886228667484"}}, "geometry": {"type": "Point", "coordinates": [-69.38904960575563, -2.889263305462493]}}]}